LEMUR-2-VALHALLA        
1 58900U 24022B   26194.51955493  .00009838  00000+0  24466-3 0  9997
2 58900  97.4077  44.8395 0009367  29.8669 330.3110 15.40455427136329
LEMUR-2-CAEL            
1 58903U 24022E   26194.83114395  .00010574  00000+0  25130-3 0  9991
2 58903  97.4061  46.1387 0007278  14.4860 345.6595 15.41825836136448
LEMUR-2-JOHNNYTRUONG    
1 59146U 24043BA  26194.42472732  .00027470  00000+0  31009-3 0  9996
2 59146  97.5381 347.7948 0004183  98.9068 261.2663 15.62464736132138
LEMUR-2-TOMATOKECHUP    
1 60471U 24149D   26194.68181252  .00006298  00000+0  17875-3 0  9998
2 60471  97.3803 276.8043 0003248 125.4451 234.7097 15.36562806106235
LEMUR-2-STELLA          
1 60533U 24149BT  26194.75047204  .00005858  00000+0  34165-3 0  9995
2 60533  97.6740 277.3306 0001265 112.4511 247.6853 15.12354035104514
LEMUR-2-MARHISYAM       
1 60536U 24149BW  26194.01272818  .00006657  00000+0  39418-3 0  9992
2 60536  97.6885 277.0636 0002715  73.2664 286.8864 15.11754239104385
LEMUR-2-AHMED-ASRAR     
1 60576U 24149DN  26194.74879220  .00005889  00000+0  33468-3 0  9991
2 60576  97.7010 280.0012 0001052 204.3434 155.7747 15.13287813104584
LEMUR-2-LLOYD           
1 60577U 24149DP  26194.75678787  .00005640  00000+0  35356-3 0  9991
2 60577  97.6752 275.9070 0004833  76.4339 283.7428 15.09735298104405
LEMUR-2-SQUIRRELCOMM    
1 60578U 24149DQ  26194.74320419  .00002787  00000+0  18811-3 0  9993
2 60578  97.6716 275.5747 0004166 335.2598  24.8429 15.07439140104405
LEMUR-2-SIERRINI        
1 60579U 24149DR  26194.76945271  .00006559  00000+0  39108-3 0  9998
2 60579  97.6848 277.4875 0006460  94.0938 266.1030 15.11494484104475
LEMUR-2-WILSON          
1 62694U 25009CP  26194.79654873  .00000692  00000+0  67977-4 0  9990
2 62694  97.7022 272.7948 0002139 332.8734  27.2375 14.95274261 81332
LEMUR-2-STAR-FOX        
1 62696U 25009CR  26194.79520671  .00003505  00000+0  26618-3 0  9992
2 62696  97.6914 276.2131 0002388  48.7282 311.4148 15.02830871 81557
LEMUR-2-ARIANNA         
1 62699U 25009CU  26194.79367471  .00003690  00000+0  28002-3 0  9996
2 62699  97.6854 275.9647 0002672  55.9087 304.2391 15.02832026 81554
LEMUR-2-ALISIA          
1 62706U 25009DB  26194.76635042  .00004605  00000+0  34521-3 0  9994
2 62706  97.6973 276.7599 0004103 132.9962 227.1608 15.03162407104155
LEMUR-2-ROUNDTRIPPER    
1 62711U 25009DG  26194.77254372  .00005151  00000+0  37500-3 0  9991
2 62711  97.7253 277.4183 0004411  66.7555 293.4134 15.04217795 81622
LEMUR-2-MYNAMEISJEFF    
1 62712U 25009DH  26194.77102214  .00004981  00000+0  36287-3 0  9990
2 62712  97.7302 277.8140 0003962 100.2655 259.9017 15.04208990 81624
